NORAD_CAT_ID,OBJECT_NAME,OBJECT_TYPE,EPOCH,MEAN_MOTION,ECCENTRICITY,INCLINATION,RA_OF_ASC_NODE,ARG_OF_PERICENTER,MEAN_ANOMALY,BSTAR,MEAN_MOTION_DOT,MEAN_MOTION_DDOT,TLE_LINE0,TLE_LINE1,TLE_LINE2,SEMIMAJOR_AXIS,PERIOD,APOGEE,PERIGEE,DECAYED
52352.0,STARLINK-3838,PAYLOAD,2024-04-02 19:56:41,15.08847181,0.0001488,53.2149,127.8427,86.6792,273.437,1.1649e-05,-1.03e-06,0.0,0 STARLINK-3838,1 52352U 22045X   24093.83104110 -.00000103  00000-0  11649-4 0  9996,2 52352  53.2149 127.8427 0001488  86.6792 273.4370 15.08847181109226,6917.858,95.437,540.753,538.694,0.0
52352.0,STARLINK-3838,PAYLOAD,2024-04-03 11:50:33,15.08834211,0.0001641,53.2159,124.8677,95.9515,264.1664,0.00013724,1.896e-05,0.0,0 STARLINK-3838,1 52352U 22045X   24094.49344396  .00001896  00000-0  13724-3 0  9995,2 52352  53.2159 124.8677 0001641  95.9515 264.1664 15.08834211109322,6917.898,95.438,540.898,538.628,0.0
52352.0,STARLINK-3838,PAYLOAD,2024-04-04 11:41:20,15.0883781,0.0001575,53.2161,120.409,87.7779,272.3394,1.6226e-05,-3e-07,0.0,0 STARLINK-3838,1 52352U 22045X   24095.48704540 -.00000030  00000-0  16226-4 0  9997,2 52352  53.2161 120.4090 0001575  87.7779 272.3394 15.08837810109478,6917.887,95.438,540.842,538.663,0.0
52352.0,STARLINK-3838,PAYLOAD,2024-04-04 18:02:53,15.08837284,0.000157,53.2161,119.2194,87.6046,272.5125,9.8795e-06,-1.31e-06,0.0,0 STARLINK-3838,1 52352U 22045X   24095.75200616 -.00000131  00000-0  98795-5 0  9996,2 52352  53.2161 119.2194 0001570  87.6046 272.5125 15.08837284109514,6917.889,95.438,540.84,538.668,0.0
52352.0,STARLINK-3838,PAYLOAD,2024-04-05 08:21:21,15.08843279,0.0001473,53.2155,116.5426,85.962,274.1541,7.0175e-05,8.29e-06,0.0,0 STARLINK-3838,1 52352U 22045X   24096.34816068  .00000829  00000-0  70175-4 0  9990,2 52352  53.2155 116.5426 0001473  85.9620 274.1541 15.08843279109607,6917.87,95.437,540.754,538.716,0.0
52352.0,STARLINK-3838,PAYLOAD,2024-04-05 17:53:40,15.08836727,0.0001438,53.2151,114.758,83.6593,276.4563,4.0633e-05,3.59e-06,0.0,0 STARLINK-3838,1 52352U 22045X   24096.74560548  .00000359  00000-0  40633-4 0  9997,2 52352  53.2151 114.7580 0001438  83.6593 276.4563 15.08836727109664,6917.89,95.438,540.75,538.761,0.0
52352.0,STARLINK-3838,PAYLOAD,2024-04-06 09:47:32,15.0883479,0.0001468,53.2155,111.7843,83.8129,276.303,1.9234e-05,1.8e-07,0.0,0 STARLINK-3838,1 52352U 22045X   24097.40800937  .00000018  00000-0  19234-4 0  9995,2 52352  53.2155 111.7843 0001468  83.8129 276.3030 15.08834790109764,6917.896,95.438,540.777,538.746,0.0
52352.0,STARLINK-3838,PAYLOAD,2024-04-06 17:44:27,15.08834009,0.0001466,53.2155,110.298,86.5053,273.6107,2.6572e-06,-2.46e-06,0.0,0 STARLINK-3838,1 52352U 22045X   24097.73921138 -.00000246  00000-0  26572-5 0  9996,2 52352  53.2155 110.2980 0001466  86.5053 273.6107 15.08834009109818,6917.899,95.438,540.778,538.75,0.0
52352.0,STARLINK-3838,PAYLOAD,2024-04-07 08:02:56,15.08837545,0.0001475,53.2158,107.6213,87.2887,272.8274,-4.9529e-06,-3.67e-06,0.0,0 STARLINK-3838,1 52352U 22045X   24098.33537111 -.00000367  00000-0 -49529-5 0  9999,2 52352  53.2158 107.6213 0001475  87.2887 272.8274 15.08837545109907,6917.888,95.438,540.773,538.733,0.0
52352.0,STARLINK-3838,PAYLOAD,2024-04-08 09:29:06,15.08840421,0.0001428,53.2161,102.8631,90.8457,269.2699,8.2497e-05,1.025e-05,0.0,0 STARLINK-3838,1 52352U 22045X   24099.39520839  .00001025  00000-0  82497-4 0  9995,2 52352  53.2161 102.8631 0001428  90.8457 269.2699 15.08840421110060,6917.879,95.438,540.732,538.756,0.0
52352.0,STARLINK-3838,PAYLOAD,2024-04-08 17:26:01,15.08838802,0.0001484,53.2166,101.3761,90.8063,269.3099,8.5374e-05,1.071e-05,0.0,0 STARLINK-3838,1 52352U 22045X   24099.72640984  .00001071  00000-0  85374-4 0  9994,2 52352  53.2166 101.3761 0001484  90.8063 269.3099 15.08838802110119,6917.884,95.438,540.776,538.722,0.0
52352.0,STARLINK-3838,PAYLOAD,2024-04-09 09:19:52,15.08843208,0.0001478,53.2167,98.4015,93.4565,266.6596,7.822e-05,9.57e-06,0.0,0 STARLINK-3838,1 52352U 22045X   24100.38880702  .00000957  00000-0  78220-4 0  9997,2 52352  53.2167  98.4015 0001478  93.4565 266.6596 15.08843208110216,6917.871,95.437,540.758,538.713,0.0
52352.0,STARLINK-3838,PAYLOAD,2024-04-09 17:16:48,15.08838724,0.0001449,53.2164,96.9143,93.5517,266.564,3.6144e-05,2.87e-06,0.0,0 STARLINK-3838,1 52352U 22045X   24100.72001103  .00000287  00000-0  36144-4 0  9990,2 52352  53.2164  96.9143 0001449  93.5517 266.5640 15.08838724110265,6917.884,95.438,540.752,538.747,0.0
52352.0,STARLINK-3838,PAYLOAD,2024-04-10 09:10:40,15.08840315,0.000147,53.2166,93.9405,93.8384,266.2777,1.3178e-05,-7.8e-07,0.0,0 STARLINK-3838,1 52352U 22045X   24101.38241077 -.00000078  00000-0  13178-4 0  9990,2 52352  53.2166  93.9405 0001470  93.8384 266.2777 15.08840315110362,6917.879,95.438,540.761,538.727,0.0
52352.0,STARLINK-3838,PAYLOAD,2024-04-10 23:29:08,15.08840049,0.0001502,53.2169,91.2641,94.6535,265.4629,3.4379e-06,-2.33e-06,0.0,0 STARLINK-3838,1 52352U 22045X   24101.97857093 -.00000233  00000-0  34379-5 0  9996,2 52352  53.2169  91.2641 0001502  94.6535 265.4629 15.08840049110452,6917.88,95.438,540.784,538.706,0.0
52352.0,STARLINK-3838,PAYLOAD,2024-04-11 04:15:17,15.08840748,0.0001495,53.2169,90.372,94.5369,265.5794,9.5893e-06,-1.35e-06,0.0,0 STARLINK-3838,1 52352U 22045X   24102.17729008 -.00000135  00000-0  95893-5 0  9992,2 52352  53.2169  90.3720 0001495  94.5369 265.5794 15.08840748110488,6917.878,95.438,540.777,538.709,0.0
52352.0,STARLINK-3838,PAYLOAD,2024-04-11 09:01:27,15.08840866,0.0001526,53.2171,89.4795,95.9796,264.137,3.0904e-05,2.04e-06,0.0,0 STARLINK-3838,1 52352U 22045X   24102.37600905  .00000204  00000-0  30904-4 0  9995,2 52352  53.2171  89.4795 0001526  95.9796 264.1370 15.08840866110516,6917.878,95.437,540.798,538.687,0.0
52352.0,STARLINK-3838,PAYLOAD,2024-04-12 04:06:05,15.08833697,0.0001497,53.2176,85.9113,96.2454,263.8709,2.5407e-06,-2.48e-06,0.0,0 STARLINK-3838,1 52352U 22045X   24103.17089610 -.00000248  00000-0  25407-5 0  9990,2 52352  53.2176  85.9113 0001497  96.2454 263.8709 15.08833697110637,6917.9,95.438,540.8,538.729,0.0
52352.0,STARLINK-3838,PAYLOAD,2024-04-12 08:52:14,15.08834483,0.0001506,53.2176,85.0191,96.6982,263.4182,5.38e-06,-2.02e-06,0.0,0 STARLINK-3838,1 52352U 22045X   24103.36961612 -.00000202  00000-0  53800-5 0  9990,2 52352  53.2176  85.0191 0001506  96.6982 263.4182 15.08834483110663,6917.897,95.438,540.804,538.72,0.0
52352.0,STARLINK-3838,PAYLOAD,2024-04-13 05:32:15,15.08840762,0.0001556,53.2177,81.153,113.0095,247.1062,3.6647e-05,2.95e-06,0.0,0 STARLINK-3838,1 52352U 22045X   24104.23073159  .00000295  00000-0  36647-4 0  9997,2 52352  53.2177  81.1530 0001556 113.0095 247.1062 15.08840762110799,6917.878,95.438,540.819,538.667,0.0
52352.0,STARLINK-3838,PAYLOAD,2024-04-14 03:47:39,15.08836101,0.0001558,53.2183,76.9916,115.9802,244.1351,2.9019e-05,1.74e-06,0.0,0 STARLINK-3838,1 52352U 22045X   24105.15809722  .00000174  00000-0  29019-4 0  9993,2 52352  53.2183  76.9916 0001558 115.9802 244.1351 15.08836101110931,6917.892,95.438,540.835,538.679,0.0
52352.0,STARLINK-3838,PAYLOAD,2024-04-14 08:33:49,15.08836582,0.0001429,53.2182,76.0986,109.0908,251.0239,3.2767e-05,2.34e-06,0.0,0 STARLINK-3838,1 52352U 22045X   24105.35681749  .00000234  00000-0  32767-4 0  9993,2 52352  53.2182  76.0986 0001429 109.0908 251.0239 15.08836582110964,6917.891,95.438,540.744,538.767,0.0
52352.0,STARLINK-3838,PAYLOAD,2024-04-15 05:13:49,15.08846856,0.0001319,53.2181,72.2312,90.6215,269.4928,4.9737e-05,5.04e-06,0.0,0 STARLINK-3838,1 52352U 22045X   24106.21793340  .00000504  00000-0  49737-4 0  9995,2 52352  53.2181  72.2312 0001319  90.6215 269.4928 15.08846856111096,6917.859,95.437,540.637,538.812,0.0
52352.0,STARLINK-3838,PAYLOAD,2024-04-15 06:49:12,15.08817196,0.0001603,53.2187,71.9336,100.8501,259.2671,0.00049306,7.563e-05,0.0,0 STARLINK-3838,1 52352U 22045X   24106.28417785  .00007563  00000-0  49306-3 0  9991,2 52352  53.2187  71.9336 0001603 100.8501 259.2671 15.08817196111101,6917.95,95.439,540.924,538.706,0.0
52352.0,STARLINK-3838,PAYLOAD,2024-04-16 05:04:40,15.0878952,0.0001052,53.2189,67.7712,118.03,242.0798,-0.00033088,-5.542e-05,0.0,0 STARLINK-3838,1 52352U 22045X   24107.21158104 -.00005542  00000-0 -33088-3 0  9999,2 52352  53.2189  67.7712 0001052 118.0300 242.0798 15.08789520111244,6918.035,95.441,540.627,539.172,0.0
52352.0,STARLINK-3838,PAYLOAD,2024-04-16 14:36:57,15.08828805,8.11e-05,53.22,65.9881,75.3443,284.7639,1.3308e-05,-7.6e-07,0.0,0 STARLINK-3838,1 52352U 22045X   24107.60899508 -.00000076  00000-0  13308-4 0  9992,2 52352  53.2200  65.9881 0000811  75.3443 284.7639 15.08828805111304,6917.915,95.438,540.341,539.219,0.0
52352.0,STARLINK-3838,PAYLOAD,2024-04-17 01:44:36,15.08870937,0.000126,53.2194,63.9081,64.2837,295.8285,0.00025805,3.825e-05,0.0,0 STARLINK-3838,1 52352U 22045X   24108.07264137  .00003825  00000-0  25805-3 0  9996,2 52352  53.2194  63.9081 0001260  64.2837 295.8285 15.08870937111379,6917.786,95.436,540.522,538.779,0.0
52352.0,STARLINK-3838,PAYLOAD,2024-04-17 06:30:44,15.0888887,0.000144,53.2198,63.0142,75.0085,285.1067,0.00039703,6.045e-05,0.0,0 STARLINK-3838,1 52352U 22045X   24108.27134267  .00006045  00000-0  39703-3 0  9997,2 52352  53.2198  63.0142 0001440  75.0085 285.1067 15.08888870111406,6917.731,95.434,540.592,538.6,0.0
52352.0,STARLINK-3838,PAYLOAD,2024-04-18 04:46:14,15.08785972,9.87e-05,53.2175,58.8522,102.5782,257.5321,0.00020496,2.971e-05,0.0,0 STARLINK-3838,1 52352U 22045X   24109.19877320  .00002971  00000-0  20496-3 0  9996,2 52352  53.2175  58.8522 0000987 102.5782 257.5321 15.08785972111540,6918.046,95.441,540.593,539.228,0.0
52352.0,STARLINK-3838,PAYLOAD,2024-04-18 07:57:00,15.0879,0.000125,53.2159,58.2625,28.7158,331.3903,0.00024028,3.533e-05,0.0,0 STARLINK-3838,1 52352U 22045X   24109.33125480  .00003533  00000-0  24028-3 0  9995,2 52352  53.2159  58.2625 0001250  28.7158 331.3903 15.08790000111567,6918.033,95.441,540.763,539.033,0.0
